SALSAT                  
1 46495U 20068K   24215.42061942  .00008868  00000+0  49207-3 0  9990
2 46495  97.8185 175.9070 0014890 148.2857 211.9274 15.13910420211303
UVSQ-SAT                
1 47438U 21006AB  24215.74476190  .00085694  00000+0  12844-2 0  9999
2 47438  97.3211 277.0594 0003861  61.8750 298.2894 15.54641979195952
LEDSAT                  
1 49069U 21073D   24215.75253667  .00023890  00000+0  90605-3 0  9990
2 49069  97.4356 286.6227 0019729 119.7710 240.5494 15.26679750163557
XW-3 (CAS-9)            
1 50466U 21131B   24215.82875938  .00001126  00000+0  37333-3 0  9994
2 50466  98.5279 300.6826 0003919   4.2978 355.8243 14.39765417136715
TEVEL-3                 
1 50988U 22002E   24215.70503516  .04139479  24234-5  16721-2 0  9993
2 50988  97.3472 295.0394 0014543 265.2439  94.7191 16.23224956142417
TEVEL-8                 
1 50989U 22002F   24215.76231050  .03406154  24114-5  17861-2 0  9990
2 50989  97.3570 295.1759 0015095 263.4366  96.5204 16.19908481142417
TEVEL-1                 
1 51013U 22002AF  24215.75876593  .03148258  24059-5  18219-2 0  9999
2 51013  97.3596 294.8954 0015001 263.0982  96.8600 16.18615776142418
TEVEL-7                 
1 51062U 22002CG  24215.72614872  .04463441  24353-5  15746-2 0  9994
2 51062  97.3521 295.1570 0015080 263.8945  96.0628 16.24833100142414
TEVEL-4                 
1 51063U 22002CH  24215.83091913  .02134936  48533-2  20062-2 0  9994
2 51063  97.3619 295.0125 0013992 259.7872 100.1835 16.13107305142417
TEVEL-2                 
1 51069U 22002CP  24215.82394603  .04722535  24317-5  16941-2 0  9999
2 51069  97.3480 295.1436 0015301 262.8305  97.1247 16.24624139142432
GREENCUBE               
1 53106U 22080B   24214.10458479 -.00000003  00000+0  00000+0 0  9990
2 53106  70.1369 176.9169 0007576  97.1713 262.9808  6.42557460 48157
KAI-1 (RS26S)           
1 53378U 22096J   24215.44069754  .00444424  78544-4  13199-2 0  9997
2 53378  97.3871 137.6892 0009268 131.0807 229.1269 15.92405507111534
CAS-5A (FO-118)         
1 54684U 22167C   24215.84701005  .00037356  00000+0  11596-2 0  9991
2 54684  97.6090   1.8932 0009012 340.0737  20.0151 15.33247747 91449
STRATOSAT-TK 1 (RS52S)  
1 57167U 23091B   24215.83981019  .00020386  00000+0  11203-2 0  9991
2 57167  97.6085 268.8267 0013243 320.9248  39.1026 15.14054835 60613
UMKA 1 (RS40S)          
1 57172U 23091G   24215.84975568  .00007292  00000+0  47366-3 0  9991
2 57172  97.6087 267.4354 0015391 326.3598  33.6652 15.08234934 60524
CUBESX-HSE 3 (RS42S)    
1 57178U 23091N   24215.82572234  .00011129  00000+0  68896-3 0  9993
2 57178  97.6129 267.9650 0015607 319.0986  40.9070 15.09869553 60540
MONITOR-4 (RS57S)       
1 57182U 23091S   24215.82887691  .00011093  00000+0  69686-3 0  9992
2 57182  97.6113 267.7460 0016042 320.4133  39.5923 15.09327808 60531
MONITOR-2 (RS39S)       
1 57184U 23091U   24215.81165486  .00006770  00000+0  44025-3 0  9990
2 57184  97.6125 267.7966 0012583 316.1076  43.9152 15.08253954 60533
SVYATOBOR 1 (RS60S)     
1 57187U 23091X   24215.84993797  .00009458  00000+0  58474-3 0  9999
2 57187  97.6119 268.3669 0011967 311.4150  48.6050 15.10003884 60573
VIZARD-METEO (RS38S)    
1 57189U 23091Z   24215.82610448  .00012147  00000+0  71777-3 0  9998
2 57189  97.6117 268.8200 0010774 308.2833  51.7427 15.11593109 60608
NANOZOND 1 (RS49S)      
1 57190U 23091AA  24215.87585330  .00017702  00000+0  96068-3 0  9998
2 57190  97.6091 269.5409 0008881 311.9769  48.0705 15.14574008 60669
POLYTECH-UNIVERSE 3 (R*)
1 57191U 23091AB  24215.81782087  .00007464  00000+0  48447-3 0  9993
2 57191  97.6090 267.4635 0018316 332.6742  27.3521 15.08214769 60521
UTMN 2 (RS27S)          
1 57203U 23091AP  24215.83311954  .00011700  00000+0  70228-3 0  9990
2 57203  97.6114 268.6541 0011232 308.6198  51.4026 15.11027711 60597
ARCCUBE 1 (RS25S)       
1 57205U 23091AR  24215.81584164  .00021762  00000+0  11350-2 0  9994
2 57205  97.6059 269.6571 0008907 312.5232  47.5248 15.15940162 60678
KUZGTU 1 (RS47S)        
1 57217U 23091AV  24215.83908498  .00011159  00000+0  69403-3 0  9991
2 57217  97.6097 267.8178 0015590 320.4015  39.6074 15.09698983 60548
HADES-D (SO-121)        
1 58567U 23174CY  24215.67869689  .00074563  00000+0  21323-2 0  9998
2 58567  97.4509 291.7259 0009334  72.0534 288.1726 15.35651064 40905
CUTE-1 (CO-55)          
1 27844U 03031E   24215.55790489  .00000772  00000+0  35956-3 0  9999
2 27844  98.6778 221.9429 0010051  17.9093 342.2438 14.23344472 94381
CUBESAT XI-IV (CO-57)   
1 27848U 03031J   24215.51045681  .00000657  00000+0  31222-3 0  9990
2 27848  98.6808 222.1147 0010281  33.3191 326.8632 14.22774121 94173
CUBESAT XI-V            
1 28895U 05043F   24215.79852760  .00003754  00000+0  66238-3 0  9998
2 28895  98.2073 351.7139 0015126 206.4147 153.6288 14.68010768  1523
CUTE-1.7+APD II (CO-65) 
1 32785U 08021C   24215.87057793  .00007681  00000+0  66448-3 0  9998
2 32785  97.7583 180.8351 0011606 158.6740 201.4967 14.97400914882531
AAUSAT-II               
1 32788U 08021F   24215.42981547  .00029680  00000+0  13781-2 0  9999
2 32788  97.5951 195.8871 0005840  46.8197 313.3525 15.19952969885343
CANX-2                  
1 32790U 08021H   24215.44798508  .00006842  00000+0  61701-3 0  9998
2 32790  97.7691 179.1264 0012331 170.9993 189.1451 14.95812444882201
SEEDS II (CO-66)        
1 32791U 08021J   24215.42752310  .00011692  00000+0  82826-3 0  9998
2 32791  97.6914 186.3792 0007125 135.1523 225.0280 15.04947071883478
SWISSCUBE               
1 35932U 09051B   24215.65513732  .00002220  00000+0  47997-3 0  9997
2 35932  98.4650  99.8883 0007387 164.0035 196.1399 14.59283914789373
BEESAT-1                
1 35933U 09051C   24215.60030700  .00001899  00000+0  41493-3 0  9998
2 35933  98.4578 100.6804 0005426 174.0056 186.1209 14.58989428789396
ITUPSAT1                
1 35935U 09051E   24215.64837479  .00001728  00000+0  38716-3 0  9997
2 35935  98.4674 100.4890 0007498 184.9996 175.1128 14.57930863789062
TISAT 1                 
1 36799U 10035E   24215.61307699  .00010830  00000+0  79719-3 0  9995
2 36799  98.0844 107.0843 0006705  82.2176 277.9809 15.03542311764033
AEROCUBE 4.5A           
1 38767U 12048K   24215.24586605  .00025228  00000+0  12791-2 0  9996
2 38767  64.6585 165.9557 0110823   2.5388 357.6270 15.11636130267424
AEROCUBE 4.5B           
1 38768U 12048L   24215.61425302  .00039270  00000+0  12477-2 0  9997
2 38768  64.6542  86.3900 0086460 349.0927  10.8324 15.28799151268513
STRAND-1                
1 39090U 13009E   24215.46981298  .00000735  00000+0  26652-3 0  9993
2 39090  98.3817  42.4832 0010005 111.7661 248.4591 14.36151876598884
BRITE-AUSTRIA           
1 39091U 13009F   24215.80330724  .00000502  00000+0  18784-3 0  9993
2 39091  98.3863  42.0813 0011425 117.7154 242.5192 14.35860802598967
NEE-01 PEGASO           
1 39151U 13018B   24215.87634289  .00005744  00000+0  65887-3 0  9999
2 39151  98.0406 333.4686 0013786 244.9986 114.9798 14.86216779608912
ESTCUBE 1               
1 39161U 13021C   24215.82865139  .00003735  00000+0  53987-3 0  9995
2 39161  97.8263 280.8748 0010297  82.4031 277.8349 14.76722915604016
POPACS 1                
1 39268U 13055D   24215.63456454  .00033863  00000+0  56759-3 0  9990
2 39268  80.9806  97.7861 0389894 303.0796  53.3541 14.96894749567479
POPACS 2                
1 39269U 13055E   24215.26159114  .00017641  00000+0  40209-3 0  9992
2 39269  81.0013 189.2778 0544875 182.0354 177.8638 14.58388320562311
POPACS 3                
1 39270U 13055F   24215.81744778  .00012648  00000+0  34589-3 0  9997
2 39270  81.0054 240.9273 0621629 326.8627  29.5004 14.38399114560361
ZACUBE-1 (TSHEPISOSAT)  
1 39417U 13066B   24215.60580336  .00008342  00000+0  85247-3 0  9990
2 39417  97.7355 170.5557 0050163   9.3977 350.8167 14.89886109578499
WNISAT-1                
1 39423U 13066H   24215.49657534  .00001857  00000+0  36230-3 0  9991
2 39423  97.6701  46.0719 0168625 223.5495 135.2289 14.55412008567174
TRITON-1                
1 39427U 13066M   24215.81054063  .00005490  00000+0  76692-3 0  9992
2 39427  97.8390 132.3051 0100173 292.4163  66.6459 14.74607563573270
DELFI-N3XT              
1 39428U 13066N   24215.75902873  .00009482  00000+0  11872-2 0  9990
2 39428  97.8354 132.8856 0097507 298.1929  60.9461 14.79117808573158
GOMX-1                  
1 39430U 13066Q   24215.85764319  .00004128  00000+0  68175-3 0  9996
2 39430  97.7266  87.4115 0140903 104.2695 257.4204 14.64474359569874
CUBEBUG-2 (LO-74)       
1 39440U 13066AA  24215.57880732  .00006132  00000+0  71319-3 0  9995
2 39440  97.8136 158.2653 0070916 121.7052 239.1102 14.83844263575218
NEE-02 KRYSAOR          
1 39441U 13066AB  24215.80997688  .00003674  00000+0  46456-3 0  9993
2 39441  97.8228 154.1836 0074935 143.2754 217.3627 14.80469355575999
FUNCUBE-1 (AO-73)       
1 39444U 13066AE  24215.87482108  .00011149  00000+0  10553-2 0  9993
2 39444  97.7207 174.0679 0046621 348.3367  11.6768 14.92974853577667
UWE-3                   
1 39446U 13066AG  24215.56775500  .00006964  00000+0  76372-3 0  9993
2 39446  97.7824 164.3347 0061641  67.9406 292.8341 14.86629423575598
BRITE-CA1 (TORONTO)     
1 40020U 14033L   24215.86635924  .00001760  00000+0  28968-3 0  9993
2 40020  97.8833 351.3656 0081704 303.6003  55.7424 14.69616082541831
DUCHIFAT-1              
1 40021U 14033M   24215.87467474  .00017668  00000+0  11259-2 0  9996
2 40021  98.0916 202.1586 0010029 307.7300  52.3017 15.08766945551165
NANOSATC-BR1            
1 40024U 14033Q   24215.45043721  .00013098  00000+0  93929-3 0  9996
2 40024  98.0659 189.5171 0007092  38.9010 321.2724 15.04471993550206
